[{"id":"lang_0000000000WH4DPN294SH38EHC","languageName":"Abkhaz","localeCode":"ab","iso6392":"abk","nativeName":"Аҧсуа бызшәа","activelyTranslated":false},{"id":"lang_0000000000AXPPG7DMRN1M3Y5G","languageName":"Afar","localeCode":"aa","iso6392":"aar","nativeName":"Afaraf","activelyTranslated":false},{"id":"lang_00000000007VSYVVDRT6Z937TX","languageName":"Afrikaans","localeCode":"af","iso6392":"afr","nativeName":"Afrikaans","activelyTranslated":false},{"id":"lang_00000000002R5Q3J4T0D4M6HXR","languageName":"Akan","localeCode":"ak","iso6392":"aka","nativeName":"Akan","activelyTranslated":false},{"id":"lang_0000000000JT1NJJ63AFVGQKHD","languageName":"Albanian","localeCode":"sq","iso6392":"sqi","nativeName":"Shqip","activelyTranslated":false},{"id":"lang_0000000000WHMAGNXW3EGP7872","languageName":"Amharic","localeCode":"am","iso6392":"amh","nativeName":"አማርኛ","activelyTranslated":false},{"id":"lang_0000000000X3DNJBKJ7JZJTWS3","languageName":"Arabic","localeCode":"ar","iso6392":"ara","nativeName":"اللغة العربية","activelyTranslated":true},{"id":"lang_000000000019SR1A8P2JMJ6YYQ","languageName":"Aragonese","localeCode":"an","iso6392":"arg","nativeName":"Aragonés","activelyTranslated":false},{"id":"lang_0000000000202PV6ES5R39AFVY","languageName":"Armenian","localeCode":"hy","iso6392":"hye","nativeName":"Հայերեն","activelyTranslated":false},{"id":"lang_00000000001BWSKVSXCHZ7K2HE","languageName":"Assamese","localeCode":"as","iso6392":"asm","nativeName":"অসমীয়া","activelyTranslated":false},{"id":"lang_00000000008E08JNQ3ZP3YG1ZC","languageName":"Avaric","localeCode":"av","iso6392":"ava","nativeName":"Авар мацӏ","activelyTranslated":false},{"id":"lang_0000000000KRK9VK1E505KQ0XS","languageName":"Avestan","localeCode":"ae","iso6392":"ave","nativeName":"Avesta","activelyTranslated":false},{"id":"lang_0000000000NYQKCEVXZEPJNKCK","languageName":"Aymara","localeCode":"ay","iso6392":"aym","nativeName":"Aymar aru","activelyTranslated":false},{"id":"lang_0000000000QHV6RS0AJSKY9W0Q","languageName":"Azerbaijani","localeCode":"az","iso6392":"aze","nativeName":"Azərbaycan dili","activelyTranslated":false},{"id":"lang_0000000000ATBEBZ0PVEHQ7Z22","languageName":"Bambara","localeCode":"bm","iso6392":"bam","nativeName":"Bamanankan","activelyTranslated":false},{"id":"lang_0000000000JJNZRYD6EVYS56F8","languageName":"Bashkir","localeCode":"ba","iso6392":"bak","nativeName":"Башҡорт теле","activelyTranslated":false},{"id":"lang_0000000000NSGRAA2F186G5Q1F","languageName":"Basque","localeCode":"eu","iso6392":"eus","nativeName":"Euskara","activelyTranslated":false},{"id":"lang_00000000006B45HN8W5MF6DTRS","languageName":"Belarusian","localeCode":"be","iso6392":"bel","nativeName":"Беларуская мова","activelyTranslated":false},{"id":"lang_0000000000QTB221HD8KYZ6JPJ","languageName":"Bengali","localeCode":"bn","iso6392":"ben","nativeName":"বাংলা","activelyTranslated":false},{"id":"lang_0000000000CE6V74G5B23K634Z","languageName":"Bihari","localeCode":"bh","iso6392":"bih","nativeName":"भोजपुरी","activelyTranslated":false},{"id":"lang_0000000000D7JA6RN3Z1XF0QVQ","languageName":"Bislama","localeCode":"bi","iso6392":"bis","nativeName":"Bislama","activelyTranslated":false},{"id":"lang_0000000000A36JKM7HMJ6N7T2W","languageName":"Bosnian","localeCode":"bs","iso6392":"bos","nativeName":"Bosanski jezik","activelyTranslated":false},{"id":"lang_0000000000B581CC7NYTRGTTEK","languageName":"Breton","localeCode":"br","iso6392":"bre","nativeName":"Brezhoneg","activelyTranslated":false},{"id":"lang_0000000000B1A5JGRGV2S8HG8S","languageName":"Bulgarian","localeCode":"bg","iso6392":"bul","nativeName":"Български език","activelyTranslated":false},{"id":"lang_00000000006KVXN4PKEWWP5CSZ","languageName":"Burmese","localeCode":"my","iso6392":"mya","nativeName":"ဗမာစာ","activelyTranslated":false},{"id":"lang_0000000000KHAK9FP3Z4A61YGV","languageName":"Catalan","localeCode":"ca","iso6392":"cat","nativeName":"Català","activelyTranslated":false},{"id":"lang_0000000000JXJN6N90S1STDMF5","languageName":"Cebuano","localeCode":"ceb","iso6392":null,"nativeName":"Cebuan","activelyTranslated":false},{"id":"lang_0000000000W44G1BYRV14H96QH","languageName":"Central Kurdish","localeCode":"ckb","iso6392":null,"nativeName":"کوردیی ناوەندی","activelyTranslated":false},{"id":"lang_0000000000C3WHK40FAR86X5CJ","languageName":"Chamorro","localeCode":"ch","iso6392":"cha","nativeName":"Chamoru","activelyTranslated":false},{"id":"lang_0000000000WSGDKEFQ3AQCJRF0","languageName":"Chechen","localeCode":"ce","iso6392":"che","nativeName":"Нохчийн мотт","activelyTranslated":false},{"id":"lang_0000000000BDTED8QCRVNB5C37","languageName":"Chichewa","localeCode":"ny","iso6392":"nya","nativeName":"Chicheŵa","activelyTranslated":false},{"id":"lang_000000000005XRN3F9V8P8NSJ0","languageName":"Chinese","localeCode":"zh","iso6392":"zho","nativeName":"中文","activelyTranslated":false},{"id":"lang_0000000000T15V504MD1E4YPZT","languageName":"Chinese (Simplified)","localeCode":"zh-Hans","iso6392":null,"nativeName":"中文（简体）","activelyTranslated":false},{"id":"lang_0000000000C87KP0BKNWPRSRGN","languageName":"Chinese (Simplified)","localeCode":"zh-CN","iso6392":null,"nativeName":"中文","activelyTranslated":false},{"id":"lang_0000000000YCPHHC6J1SKKEJPP","languageName":"Chinese (Traditional)","localeCode":"zh-TW","iso6392":null,"nativeName":"中文","activelyTranslated":false},{"id":"lang_00000000001KEM4C5FKDJYTSZT","languageName":"Chinese (Traditional)","localeCode":"zh-Hant","iso6392":null,"nativeName":"中文（繁體）","activelyTranslated":false},{"id":"lang_0000000000E0DRT6FZHSHDRHAF","languageName":"Chuvash","localeCode":"cv","iso6392":"chv","nativeName":"Чӑваш чӗлхи","activelyTranslated":false},{"id":"lang_0000000000NKP5W95PPQYZ9KN5","languageName":"Cornish","localeCode":"kw","iso6392":"cor","nativeName":"Kernewek","activelyTranslated":false},{"id":"lang_00000000002KZSJ8MJ8NAEAH3Y","languageName":"Corsican","localeCode":"co","iso6392":"cos","nativeName":"Corsu","activelyTranslated":false},{"id":"lang_000000000083YQCXKQCRNR32DN","languageName":"Cree","localeCode":"cr","iso6392":"cre","nativeName":"ᓀᐦᐃᔭᐍᐏᐣ","activelyTranslated":false},{"id":"lang_00000000006YPFN5BCRGB4ZKTV","languageName":"Croatian","localeCode":"hr","iso6392":"hrv","nativeName":"Hrvatski","activelyTranslated":false},{"id":"lang_0000000000X5ZR09PJKXCESKPF","languageName":"Czech","localeCode":"cs","iso6392":"ces","nativeName":"Čeština","activelyTranslated":false},{"id":"lang_0000000000Z4H3ERWGKBF0296R","languageName":"Danish","localeCode":"da","iso6392":"dan","nativeName":"Dansk","activelyTranslated":false},{"id":"lang_00000000000KSZH23Z4TS44YPR","languageName":"Divehi","localeCode":"dv","iso6392":"div","nativeName":"Dhivehi","activelyTranslated":false},{"id":"lang_0000000000Z7NFAWFFR0Z0BJNY","languageName":"Dutch","localeCode":"nl","iso6392":"nld","nativeName":"Nederlands","activelyTranslated":false},{"id":"lang_00000000007PPDVFJBH4YAQEMR","languageName":"Dzongkha","localeCode":"dz","iso6392":"dzo","nativeName":"རྫོང་ཁ","activelyTranslated":false},{"id":"lang_0000000000N3K70GZXE29Z03A4","languageName":"English","localeCode":"en","iso6392":"eng","nativeName":"English","activelyTranslated":true},{"id":"lang_00000000005D6Y3JHS1TZ6P3C0","languageName":"English (Australia)","localeCode":"en-AU","iso6392":null,"nativeName":"English (australia)","activelyTranslated":false},{"id":"lang_0000000000ABJHARZWN39WPQG1","languageName":"English (Canada)","localeCode":"en-CA","iso6392":null,"nativeName":"English (canada)","activelyTranslated":false},{"id":"lang_000000000046A0D7ZNRBJZ0VG0","languageName":"English (United Kingdom)","localeCode":"en-GB","iso6392":null,"nativeName":"English (united kingdom)","activelyTranslated":false},{"id":"lang_0000000000XJR2NSST34FW920D","languageName":"Esperanto","localeCode":"eo","iso6392":"epo","nativeName":"Esperanto","activelyTranslated":false},{"id":"lang_00000000005B6WWE10VS8BHY41","languageName":"Estonian","localeCode":"et","iso6392":"est","nativeName":"Eesti","activelyTranslated":false},{"id":"lang_0000000000RDFFYKYSDSM28ZTD","languageName":"Ewe","localeCode":"ee","iso6392":"ewe","nativeName":"Eʋegbe","activelyTranslated":false},{"id":"lang_000000000026VXY1H7HMDVC8JC","languageName":"Faroese","localeCode":"fo","iso6392":"fao","nativeName":"Føroyskt","activelyTranslated":false},{"id":"lang_0000000000R010AWHPCJWB7NK4","languageName":"Fijian","localeCode":"fj","iso6392":"fij","nativeName":"Vakaviti","activelyTranslated":false},{"id":"lang_0000000000GZXXRD16FPAEARDR","languageName":"Finnish","localeCode":"fi","iso6392":"fin","nativeName":"Suomi","activelyTranslated":false},{"id":"lang_0000000000NF5EFJJ1KFY0ED8E","languageName":"French","localeCode":"fr","iso6392":"fra","nativeName":"Français","activelyTranslated":true},{"id":"lang_0000000000MR3XDR6FTC1W16HF","languageName":"French (Canada)","localeCode":"fr-CA","iso6392":null,"nativeName":"Français (canada)","activelyTranslated":false},{"id":"lang_0000000000YSJFJHHTSAWDTFMJ","languageName":"Fula","localeCode":"ff","iso6392":"ful","nativeName":"Fulfulde","activelyTranslated":false},{"id":"lang_0000000000ZZWEN9V7ER1B9M5W","languageName":"Galician","localeCode":"gl","iso6392":"glg","nativeName":"Galego","activelyTranslated":false},{"id":"lang_0000000000NY0C8F6VRCYXZ8DT","languageName":"Ganda","localeCode":"lg","iso6392":"lug","nativeName":"Luganda","activelyTranslated":false},{"id":"lang_0000000000Y2A552CA0911PQPT","languageName":"Georgian","localeCode":"ka","iso6392":"kat","nativeName":"Ქართული","activelyTranslated":false},{"id":"lang_00000000001E8RN3C2TQH7DZPJ","languageName":"German","localeCode":"de","iso6392":"deu","nativeName":"Deutsch","activelyTranslated":false},{"id":"lang_0000000000VX69XQ5NMRFGSJ3B","languageName":"Greek","localeCode":"el","iso6392":"ell","nativeName":"Ελληνικά","activelyTranslated":false},{"id":"lang_0000000000JFMNTT896H70QS7D","languageName":"Guaraní","localeCode":"gn","iso6392":"grn","nativeName":"Avañe'ẽ","activelyTranslated":false},{"id":"lang_00000000005ZAQ0KFK1Q3D7NEA","languageName":"Gujarati","localeCode":"gu","iso6392":"guj","nativeName":"ગુજરાતી","activelyTranslated":false},{"id":"lang_00000000008SDB2XNNYNM8D83F","languageName":"Haitian","localeCode":"ht","iso6392":"hat","nativeName":"Kreyòl ayisyen","activelyTranslated":false},{"id":"lang_0000000000AFK6BG0W4JT1W61R","languageName":"Hausa","localeCode":"ha","iso6392":"hau","nativeName":"هَوُسَ","activelyTranslated":false},{"id":"lang_0000000000Z8PR1PFGTKX64X55","languageName":"Hawaiian","localeCode":"haw","iso6392":null,"nativeName":"ʻōlelo hawaiʻi","activelyTranslated":false},{"id":"lang_0000000000K0VSDF2555T7DKX1","languageName":"Hebrew","localeCode":"he","iso6392":"heb","nativeName":"עברית","activelyTranslated":false},{"id":"lang_0000000000XTP4RRR9ZA90Z2G2","languageName":"Herero","localeCode":"hz","iso6392":"her","nativeName":"Otjiherero","activelyTranslated":false},{"id":"lang_0000000000CKHGN5EZWSMASTZB","languageName":"Hindi","localeCode":"hi","iso6392":"hin","nativeName":"हिन्दी","activelyTranslated":false},{"id":"lang_0000000000GDQ01JWWQRS0RNME","languageName":"Hiri Motu","localeCode":"ho","iso6392":"hmo","nativeName":"Hiri motu","activelyTranslated":false},{"id":"lang_0000000000K006C11TXJ9Y7TJS","languageName":"Hmong","localeCode":"hmn","iso6392":null,"nativeName":"Hmôngz","activelyTranslated":false},{"id":"lang_0000000000A01MMDTSSP53V66H","languageName":"Hungarian","localeCode":"hu","iso6392":"hun","nativeName":"Magyar","activelyTranslated":false},{"id":"lang_00000000008N10DQXKP2NB3B3W","languageName":"Icelandic","localeCode":"is","iso6392":"isl","nativeName":"Íslenska","activelyTranslated":false},{"id":"lang_0000000000SSHW3828JCK0NCH1","languageName":"Ido","localeCode":"io","iso6392":"ido","nativeName":"Ido","activelyTranslated":false},{"id":"lang_00000000002MKKQ0D0RMQ1DPKH","languageName":"Igbo","localeCode":"ig","iso6392":"ibo","nativeName":"Asụsụ igbo","activelyTranslated":false},{"id":"lang_0000000000AC798YZWAKQ8GAB6","languageName":"Indonesian","localeCode":"id","iso6392":"ind","nativeName":"Bahasa indonesia","activelyTranslated":false},{"id":"lang_00000000005163PHA8YJWBS2WE","languageName":"Interlingua","localeCode":"ia","iso6392":"ina","nativeName":"Interlingua","activelyTranslated":false},{"id":"lang_00000000004KWPNCJWTV4A0SCB","languageName":"Interlingue","localeCode":"ie","iso6392":"ile","nativeName":"Interlingue","activelyTranslated":false},{"id":"lang_0000000000J1Z2YV21KTJJ6AC8","languageName":"Inuktitut","localeCode":"iu","iso6392":"iku","nativeName":"ᐃᓄᒃᑎᑐᑦ","activelyTranslated":false},{"id":"lang_00000000002HXZMH7XZ5JCFCHW","languageName":"Inupiaq","localeCode":"ik","iso6392":"ipk","nativeName":"Iñupiaq","activelyTranslated":false},{"id":"lang_0000000000CYB8QPSP7WJD84GA","languageName":"Irish","localeCode":"ga","iso6392":"gle","nativeName":"Gaeilge","activelyTranslated":false},{"id":"lang_0000000000Q3RFX6BFCQ2JMD2K","languageName":"Italian","localeCode":"it","iso6392":"ita","nativeName":"Italiano","activelyTranslated":false},{"id":"lang_0000000000Y2ZSQ5W9N8RYM20P","languageName":"Japanese","localeCode":"ja","iso6392":"jpn","nativeName":"日本語","activelyTranslated":false},{"id":"lang_0000000000EHJYCGJ7H2SK5JD4","languageName":"Javanese","localeCode":"jv","iso6392":"jav","nativeName":"Basa jawa","activelyTranslated":false},{"id":"lang_0000000000HG38JJ4TR0CR73DG","languageName":"Javanese","localeCode":"jw","iso6392":null,"nativeName":"ꦧꦱꦗꦮ","activelyTranslated":false},{"id":"lang_000000000054SVNJR7Q564P4S7","languageName":"Kalaallisut","localeCode":"kl","iso6392":"kal","nativeName":"Kalaallisut","activelyTranslated":false},{"id":"lang_0000000000MFEYSY8MZ8G6JVVR","languageName":"Kannada","localeCode":"kn","iso6392":"kan","nativeName":"ಕನ್ನಡ","activelyTranslated":false},{"id":"lang_0000000000RGR9FBFD6NBBW8NZ","languageName":"Kanuri","localeCode":"kr","iso6392":"kau","nativeName":"Kanuri","activelyTranslated":false},{"id":"lang_00000000001WEW113WPRBE44DT","languageName":"Kashmiri","localeCode":"ks","iso6392":"kas","nativeName":"कश्मीरी","activelyTranslated":false},{"id":"lang_0000000000Q5A1C6WP3VXJC7SN","languageName":"Kazakh","localeCode":"kk","iso6392":"kaz","nativeName":"Қазақ тілі","activelyTranslated":false},{"id":"lang_0000000000X19SM6SMH5Q4DG1J","languageName":"Khmer","localeCode":"km","iso6392":"khm","nativeName":"ខេមរភាសា","activelyTranslated":false},{"id":"lang_000000000081P5973N08ZJ4Y0B","languageName":"Kikuyu","localeCode":"ki","iso6392":"kik","nativeName":"Gĩkũyũ","activelyTranslated":false},{"id":"lang_0000000000VE6VRTR7KJV4C1MY","languageName":"Kinyarwanda","localeCode":"rw","iso6392":"kin","nativeName":"Ikinyarwanda","activelyTranslated":false},{"id":"lang_0000000000P10Q9MXMA7G9K50K","languageName":"Kirundi","localeCode":"rn","iso6392":"run","nativeName":"Ikirundi","activelyTranslated":false},{"id":"lang_00000000006H7RKSCAFYE4FM5X","languageName":"Komi","localeCode":"kv","iso6392":"kom","nativeName":"Коми кыв","activelyTranslated":false},{"id":"lang_0000000000DC8GC7KZF542NT2M","languageName":"Kongo","localeCode":"kg","iso6392":"kon","nativeName":"Kikongo","activelyTranslated":false},{"id":"lang_0000000000P2ZZJ2BZN9QRSKR7","languageName":"Korean","localeCode":"ko","iso6392":"kor","nativeName":"한국어","activelyTranslated":false},{"id":"lang_0000000000WSWHTYZR8E16D81A","languageName":"Kurdish","localeCode":"ku","iso6392":"kur","nativeName":"Kurdî","activelyTranslated":false},{"id":"lang_000000000000BDRQ0SQPYD7T5F","languageName":"Kwanyama","localeCode":"kj","iso6392":"kua","nativeName":"Kuanyama","activelyTranslated":false},{"id":"lang_0000000000R2HVEC3AW18A6V82","languageName":"Kyrgyz","localeCode":"ky","iso6392":"kir","nativeName":"Кыргызча","activelyTranslated":false},{"id":"lang_0000000000SF273BCAQTVJAE8E","languageName":"Lao","localeCode":"lo","iso6392":"lao","nativeName":"ພາສາ","activelyTranslated":false},{"id":"lang_00000000008S356AC5HK6MZRQG","languageName":"Latin","localeCode":"la","iso6392":"lat","nativeName":"Latine","activelyTranslated":false},{"id":"lang_00000000002WQB2PVW5TBYN1XJ","languageName":"Latvian","localeCode":"lv","iso6392":"lav","nativeName":"Latviešu valoda","activelyTranslated":false},{"id":"lang_0000000000NC6NT8AXNK3EZPMH","languageName":"Limburgish","localeCode":"li","iso6392":"lim","nativeName":"Limburgs","activelyTranslated":false},{"id":"lang_0000000000DM46841WD89HE2YW","languageName":"Lingala","localeCode":"ln","iso6392":"lin","nativeName":"Lingála","activelyTranslated":false},{"id":"lang_0000000000JNK7E1WYB4NBB2MX","languageName":"Lithuanian","localeCode":"lt","iso6392":"lit","nativeName":"Lietuvių kalba","activelyTranslated":false},{"id":"lang_00000000006N9QM6G2PG3HKGS1","languageName":"Luba-Katanga","localeCode":"lu","iso6392":"lub","nativeName":"Tshiluba","activelyTranslated":false},{"id":"lang_0000000000A7ZB1T2SKHP27FNJ","languageName":"Luxembourgish","localeCode":"lb","iso6392":"ltz","nativeName":"Lëtzebuergesch","activelyTranslated":false},{"id":"lang_00000000008QKNHM8058K2087Z","languageName":"Macedonian","localeCode":"mk","iso6392":"mkd","nativeName":"Македонски јазик","activelyTranslated":false},{"id":"lang_0000000000AYXJVHQ87H7F3KH2","languageName":"Maithili","localeCode":"mai","iso6392":null,"nativeName":"मैथिली","activelyTranslated":false},{"id":"lang_00000000003SB8ZT424BGW6B1S","languageName":"Malagasy","localeCode":"mg","iso6392":"mlg","nativeName":"Fiteny malagasy","activelyTranslated":false},{"id":"lang_00000000009EP2BJBFQ970VVRC","languageName":"Malay","localeCode":"ms","iso6392":"msa","nativeName":"Bahasa malaysia","activelyTranslated":false},{"id":"lang_0000000000RGFBCXA16FPSDDCH","languageName":"Malayalam","localeCode":"ml","iso6392":"mal","nativeName":"മലയാളം","activelyTranslated":false},{"id":"lang_0000000000WRMDPE5DA1V6G1RJ","languageName":"Maltese","localeCode":"mt","iso6392":"mlt","nativeName":"Malti","activelyTranslated":false},{"id":"lang_0000000000SX6M9KT5E3Y7JX30","languageName":"Manx","localeCode":"gv","iso6392":"glv","nativeName":"Gaelg","activelyTranslated":false},{"id":"lang_0000000000Z1Y7ZAD8X4G5C76Q","languageName":"Māori","localeCode":"mi","iso6392":"mri","nativeName":"Te reo māori","activelyTranslated":false},{"id":"lang_0000000000TN5AJGH8JF14AJ1P","languageName":"Marathi","localeCode":"mr","iso6392":"mar","nativeName":"मराठी","activelyTranslated":false},{"id":"lang_00000000009CRPK5NSYVVFJM5F","languageName":"Marshallese","localeCode":"mh","iso6392":"mah","nativeName":"Kajin m̧ajeļ","activelyTranslated":false},{"id":"lang_0000000000MY0K6C0VWZ4RW3DJ","languageName":"Mongolian","localeCode":"mn","iso6392":"mon","nativeName":"Монгол хэл","activelyTranslated":false},{"id":"lang_0000000000NSGC605FG0PDBTTD","languageName":"Nauru","localeCode":"na","iso6392":"nau","nativeName":"Ekakairũ naoero","activelyTranslated":false},{"id":"lang_0000000000Q979G5K0BK4AT3MK","languageName":"Navajo","localeCode":"nv","iso6392":"nav","nativeName":"Diné bizaad","activelyTranslated":false},{"id":"lang_0000000000SAQT9TT47CVH6SED","languageName":"Ndonga","localeCode":"ng","iso6392":"ndo","nativeName":"Owambo","activelyTranslated":false},{"id":"lang_00000000005AQ3YWGMSEPYKJQ0","languageName":"Nepali","localeCode":"ne","iso6392":"nep","nativeName":"नेपाली","activelyTranslated":false},{"id":"lang_0000000000V1E6ED6SG8C0P1T9","languageName":"Northern Ndebele","localeCode":"nd","iso6392":"nde","nativeName":"Isindebele","activelyTranslated":false},{"id":"lang_0000000000NTGW3H6Z3X50KW3P","languageName":"Northern Sami","localeCode":"se","iso6392":"sme","nativeName":"Davvisámegiella","activelyTranslated":false},{"id":"lang_0000000000PV27SWWAGF5Z9FAR","languageName":"Norwegian","localeCode":"no","iso6392":"nor","nativeName":"Norsk","activelyTranslated":false},{"id":"lang_0000000000Q0ZRBY9YRBASV510","languageName":"Norwegian Bokmål","localeCode":"nb","iso6392":"nob","nativeName":"Norsk bokmål","activelyTranslated":false},{"id":"lang_000000000010E6CHVBERY6JA6V","languageName":"Norwegian Nynorsk","localeCode":"nn","iso6392":"nno","nativeName":"Norsk nynorsk","activelyTranslated":false},{"id":"lang_0000000000XFN57V5JE5AFXZNJ","languageName":"Nuosu","localeCode":"ii","iso6392":"iii","nativeName":"ꆈꌠ꒿ nuosuhxop","activelyTranslated":false},{"id":"lang_0000000000MZ5YBBEART36RX9R","languageName":"Occitan","localeCode":"oc","iso6392":"oci","nativeName":"Occitan","activelyTranslated":false},{"id":"lang_0000000000H57HYKM4EY18SDAZ","languageName":"Ojibwe","localeCode":"oj","iso6392":"oji","nativeName":"ᐊᓂᔑᓈᐯᒧᐎᓐ","activelyTranslated":false},{"id":"lang_0000000000AVYXBM0NQBTBF4YE","languageName":"Old Church Slavonic","localeCode":"cu","iso6392":"chu","nativeName":"Ѩзыкъ словѣньскъ","activelyTranslated":false},{"id":"lang_0000000000PYKG1QZJDQDRGSYZ","languageName":"Oriya","localeCode":"or","iso6392":"ori","nativeName":"ଓଡ଼ିଆ","activelyTranslated":false},{"id":"lang_0000000000MZBPH2HFVSBWJ0QY","languageName":"Oromo","localeCode":"om","iso6392":"orm","nativeName":"Afaan oromoo","activelyTranslated":false},{"id":"lang_0000000000GM6J44K73WFCKVYE","languageName":"Ossetian","localeCode":"os","iso6392":"oss","nativeName":"Ирон æвзаг","activelyTranslated":false},{"id":"lang_0000000000X0FR5ER8Q57924S6","languageName":"Pāli","localeCode":"pi","iso6392":"pli","nativeName":"पाऴि","activelyTranslated":false},{"id":"lang_0000000000JBHAXG1FRQKZ078J","languageName":"Panjabi","localeCode":"pa","iso6392":"pan","nativeName":"ਪੰਜਾਬੀ","activelyTranslated":false},{"id":"lang_00000000000STKXNJQ1Y0SVEWJ","languageName":"Pashto","localeCode":"ps","iso6392":"pus","nativeName":"پښتو","activelyTranslated":false},{"id":"lang_0000000000QWAFFNDAW9D75HK6","languageName":"Persian","localeCode":"fa","iso6392":"fas","nativeName":"فارسی","activelyTranslated":false},{"id":"lang_0000000000G7ZSP47FWN90HNXA","languageName":"Polish","localeCode":"pl","iso6392":"pol","nativeName":"Język polski","activelyTranslated":false},{"id":"lang_0000000000NYC5FZFG3VV3RZ2V","languageName":"Portuguese","localeCode":"pt","iso6392":"por","nativeName":"Português","activelyTranslated":false},{"id":"lang_00000000002HDRBEHXZWH1K59J","languageName":"Portuguese (Brazil)","localeCode":"pt-BR","iso6392":null,"nativeName":"Português (brasil)","activelyTranslated":false},{"id":"lang_0000000000VQ0ZSR7E0K0HX61J","languageName":"Quechua","localeCode":"qu","iso6392":"que","nativeName":"Runa simi","activelyTranslated":false},{"id":"lang_0000000000Q2F35A6VB0ZH3Y4X","languageName":"Romanian","localeCode":"ro","iso6392":"ron","nativeName":"Română","activelyTranslated":false},{"id":"lang_0000000000BEC84Q0EDV49F2JJ","languageName":"Romansh","localeCode":"rm","iso6392":"roh","nativeName":"Rumantsch grischun","activelyTranslated":false},{"id":"lang_0000000000BXGXDK2NKFKYDVBK","languageName":"Russian","localeCode":"ru","iso6392":"rus","nativeName":"Русский","activelyTranslated":true},{"id":"lang_0000000000HHR45Q7VAJ5TFCKK","languageName":"Samoan","localeCode":"sm","iso6392":"smo","nativeName":"Gagana fa'a samoa","activelyTranslated":false},{"id":"lang_0000000000C6NPGHVGBWBDVNEN","languageName":"Sango","localeCode":"sg","iso6392":"sag","nativeName":"Yângâ tî sängö","activelyTranslated":false},{"id":"lang_0000000000G514DDFYJ35HYX51","languageName":"Sanskrit","localeCode":"sa","iso6392":"san","nativeName":"संस्कृतम्","activelyTranslated":false},{"id":"lang_0000000000SH25T8J682WRD6PN","languageName":"Sardinian","localeCode":"sc","iso6392":"srd","nativeName":"Sardu","activelyTranslated":false},{"id":"lang_0000000000QQ2SMTKQCTCQNYEZ","languageName":"Scottish Gaelic","localeCode":"gd","iso6392":"gla","nativeName":"Gàidhlig","activelyTranslated":false},{"id":"lang_0000000000PSE4SWJ24KAGS5GJ","languageName":"Serbian","localeCode":"sr","iso6392":"srp","nativeName":"Српски језик","activelyTranslated":false},{"id":"lang_0000000000786564ZTC9PGA6XV","languageName":"Shona","localeCode":"sn","iso6392":"sna","nativeName":"Chishona","activelyTranslated":false},{"id":"lang_0000000000AFM9J752C12C5Y3Q","languageName":"Sindhi","localeCode":"sd","iso6392":"snd","nativeName":"सिन्धी","activelyTranslated":false},{"id":"lang_0000000000JWWCCT20VEV18AVE","languageName":"Sinhala","localeCode":"si","iso6392":"sin","nativeName":"සිංහල","activelyTranslated":false},{"id":"lang_0000000000RBP8M0F8T9XX0M78","languageName":"Slovak","localeCode":"sk","iso6392":"slk","nativeName":"Slovenčina","activelyTranslated":false},{"id":"lang_0000000000NHSA9KRMZY5539M5","languageName":"Slovenian","localeCode":"sl","iso6392":"slv","nativeName":"Slovenski jezik","activelyTranslated":false},{"id":"lang_0000000000M4JTMWR8AH1SJNMQ","languageName":"Somali","localeCode":"so","iso6392":"som","nativeName":"Soomaaliga","activelyTranslated":false},{"id":"lang_0000000000ZPG2XXHQYQ8F7B6H","languageName":"Southern Ndebele","localeCode":"nr","iso6392":"nbl","nativeName":"Isindebele","activelyTranslated":false},{"id":"lang_0000000000Z96V8RWYXFYSM6M1","languageName":"Southern Sotho","localeCode":"st","iso6392":"sot","nativeName":"Sesotho","activelyTranslated":false},{"id":"lang_0000000000EBJ3V9T0RJP07R5G","languageName":"Spanish","localeCode":"es","iso6392":"spa","nativeName":"Español","activelyTranslated":true},{"id":"lang_0000000000HR49HXQ3ECR0NW6B","languageName":"Spanish (Latin America)","localeCode":"es-419","iso6392":null,"nativeName":"Español (latinoamérica)","activelyTranslated":false},{"id":"lang_0000000000ZE12ANFEHF0VPC1B","languageName":"Spanish (Mexico)","localeCode":"es-MX","iso6392":null,"nativeName":"Español (méxico)","activelyTranslated":false},{"id":"lang_0000000000APGYRQ9NV615HPZN","languageName":"Spanish (Spain)","localeCode":"es-ES","iso6392":null,"nativeName":"Español (españa)","activelyTranslated":false},{"id":"lang_0000000000CK9X52TMQ72FA52X","languageName":"Sundanese","localeCode":"su","iso6392":"sun","nativeName":"Basa sunda","activelyTranslated":false},{"id":"lang_0000000000BBAT6KH1SBGVA3SQ","languageName":"Swahili","localeCode":"sw","iso6392":"swa","nativeName":"Kiswahili","activelyTranslated":false},{"id":"lang_0000000000S8TEJ4R4J3F24T9H","languageName":"Swati","localeCode":"ss","iso6392":"ssw","nativeName":"Siswati","activelyTranslated":false},{"id":"lang_0000000000TJBTY1A6ZAZWM1PA","languageName":"Swedish","localeCode":"sv","iso6392":"swe","nativeName":"Svenska","activelyTranslated":false},{"id":"lang_00000000004X585QF9QRF0V6KW","languageName":"Tagalog","localeCode":"tl","iso6392":"tgl","nativeName":"Wikang tagalog","activelyTranslated":false},{"id":"lang_00000000000E081RDB9X34R9BG","languageName":"Tahitian","localeCode":"ty","iso6392":"tah","nativeName":"Reo tahiti","activelyTranslated":false},{"id":"lang_0000000000CC4WWYHYQTHQH1RK","languageName":"Tajik","localeCode":"tg","iso6392":"tgk","nativeName":"Тоҷикӣ","activelyTranslated":false},{"id":"lang_0000000000XD2XA9ASHCY831HK","languageName":"Tamil","localeCode":"ta","iso6392":"tam","nativeName":"தமிழ்","activelyTranslated":false},{"id":"lang_0000000000GXCR152JHGFHZ7P2","languageName":"Tatar","localeCode":"tt","iso6392":"tat","nativeName":"Татар теле","activelyTranslated":false},{"id":"lang_0000000000JNTSXKTVH13D1G0B","languageName":"Telugu","localeCode":"te","iso6392":"tel","nativeName":"తెలుగు","activelyTranslated":false},{"id":"lang_00000000006567MNV7VR8MGA4A","languageName":"Thai","localeCode":"th","iso6392":"tha","nativeName":"ไทย","activelyTranslated":false},{"id":"lang_000000000022H2ZNSSDMJ81PDE","languageName":"Tibetan","localeCode":"bo","iso6392":"bod","nativeName":"བོད་ཡིག","activelyTranslated":false},{"id":"lang_0000000000QPA3WT9KS3T0JFZ8","languageName":"Tigrinya","localeCode":"ti","iso6392":"tir","nativeName":"ትግርኛ","activelyTranslated":false},{"id":"lang_0000000000S55HZ9PR8KGE99M6","languageName":"Tonga","localeCode":"to","iso6392":"ton","nativeName":"Faka tonga","activelyTranslated":false},{"id":"lang_0000000000Z07E6F7STYT0F54K","languageName":"Tsonga","localeCode":"ts","iso6392":"tso","nativeName":"Xitsonga","activelyTranslated":false},{"id":"lang_0000000000YWN9PVPE0JHYKQZE","languageName":"Tswana","localeCode":"tn","iso6392":"tsn","nativeName":"Setswana","activelyTranslated":false},{"id":"lang_0000000000FE9MEYGZX8HBT553","languageName":"Turkish","localeCode":"tr","iso6392":"tur","nativeName":"Türkçe","activelyTranslated":false},{"id":"lang_0000000000XPE5CKGQY3K32RPN","languageName":"Turkmen","localeCode":"tk","iso6392":"tuk","nativeName":"Türkmen","activelyTranslated":false},{"id":"lang_0000000000QFFGTKDERJP4B8HX","languageName":"Twi","localeCode":"tw","iso6392":"twi","nativeName":"Twi","activelyTranslated":false},{"id":"lang_0000000000YZCP34049CMQ72JA","languageName":"Ukrainian","localeCode":"uk","iso6392":"ukr","nativeName":"Українська","activelyTranslated":false},{"id":"lang_0000000000NGG2GPJX3MQHV3AG","languageName":"Urdu","localeCode":"ur","iso6392":"urd","nativeName":"اردو","activelyTranslated":false},{"id":"lang_0000000000PCMYE5WYR8SZZ2R7","languageName":"Uyghur","localeCode":"ug","iso6392":"uig","nativeName":"ئۇيغۇرچە‎","activelyTranslated":false},{"id":"lang_0000000000F59D422DQQJ7HZVN","languageName":"Uzbek","localeCode":"uz","iso6392":"uzb","nativeName":"Ўзбек","activelyTranslated":false},{"id":"lang_0000000000APQTRBY360R9VKRB","languageName":"Venda","localeCode":"ve","iso6392":"ven","nativeName":"Tshivenḓa","activelyTranslated":false},{"id":"lang_0000000000M4ZVZEKEA4DVEZT9","languageName":"Vietnamese","localeCode":"vi","iso6392":"vie","nativeName":"Tiếng việt","activelyTranslated":false},{"id":"lang_0000000000YFQV2T02FPSJB2VD","languageName":"Volapük","localeCode":"vo","iso6392":"vol","nativeName":"Volapük","activelyTranslated":false},{"id":"lang_0000000000DSJKFKS5YFWAK84M","languageName":"Walloon","localeCode":"wa","iso6392":"wln","nativeName":"Walon","activelyTranslated":false},{"id":"lang_00000000005013EB2R76H3EEG5","languageName":"Welsh","localeCode":"cy","iso6392":"cym","nativeName":"Cymraeg","activelyTranslated":false},{"id":"lang_0000000000KB422AMC2P3YSXZS","languageName":"Western Frisian","localeCode":"fy","iso6392":"fry","nativeName":"Frysk","activelyTranslated":false},{"id":"lang_0000000000SQFZM0CTF2EDC8A5","languageName":"Wolof","localeCode":"wo","iso6392":"wol","nativeName":"Wollof","activelyTranslated":false},{"id":"lang_0000000000MH14AYTF5796C9M1","languageName":"Xhosa","localeCode":"xh","iso6392":"xho","nativeName":"Isixhosa","activelyTranslated":false},{"id":"lang_0000000000E5XDF56F9QMTEA8W","languageName":"Yiddish","localeCode":"yi","iso6392":"yid","nativeName":"ייִדיש","activelyTranslated":false},{"id":"lang_0000000000790XHA1NG0BJ0VVD","languageName":"Yoruba","localeCode":"yo","iso6392":"yor","nativeName":"Yorùbá","activelyTranslated":false},{"id":"lang_0000000000Q5A620BJ9E9RVXE7","languageName":"Zhuang","localeCode":"za","iso6392":"zha","nativeName":"Saɯ cueŋƅ","activelyTranslated":false},{"id":"lang_0000000000SSRX9JG97NHT6RHJ","languageName":"Zulu","localeCode":"zu","iso6392":"zul","nativeName":"Isizulu","activelyTranslated":false}]